COMMENT,ORIGINATOR,NORAD_CAT_ID,OBJECT_NAME,OBJECT_TYPE,CLASSIFICATION_TYPE,INTLDES,EPOCH,EPOCH_MICROSECONDS,MEAN_MOTION,ECCENTRICITY,INCLINATION,RA_OF_ASC_NODE,ARG_OF_PERICENTER,MEAN_ANOMALY,EPHEMERIS_TYPE,ELEMENT_SET_NO,REV_AT_EPOCH,BSTAR,MEAN_MOTION_DOT,MEAN_MOTION_DDOT,FILE,TLE_LINE0,TLE_LINE1,TLE_LINE2,OBJECT_ID,OBJECT_NUMBER,SEMIMAJOR_AXIS,PERIOD,APOGEE,PERIGEE,DECAYED
"GENERATED VIA SPACETRACK.ORG API","18 SPCS","48893","SPACEBEE-106","PAYLOAD","U","21059Q","2021-10-01 13:28:51","223872","15.12364119","0.0008142","97.527","41.9453","280.323","79.7082","0","999","1477","0.00025438","0.0000435","0","3138865","0 SPACEBEE-106","1 48893U 21059Q   21274.56170398  .00004350  00000-0  25438-3 0  9991","2 48893  97.5270  41.9453 0008142 280.3230  79.7082 15.12364119 14778","2021-059Q","48893","6907.129","95.215","534.618","523.371","0"
"GENERATED VIA SPACETRACK.ORG API","18 SPCS","48893","SPACEBEE-106","PAYLOAD","U","21059Q","2021-10-01 18:14:40","796160","15.12365723","0.0008132","97.527","42.141","279.5096","80.5215","0","999","1480","0.00025018","0.00004277","0","3139062","0 SPACEBEE-106","1 48893U 21059Q   21274.76019440  .00004277  00000-0  25018-3 0  9995","2 48893  97.5270  42.1410 0008132 279.5096  80.5215 15.12365723 14807","2021-059Q","48893","6907.125","95.215","534.606","523.373","0"
"GENERATED VIA SPACETRACK.ORG API","18 SPCS","48893","SPACEBEE-106","PAYLOAD","U","21059Q","2021-10-01 18:14:40","796160","15.12365723","0.0008132","97.527","42.141","279.5096","80.5215","0","999","1480","0.00025018","0.00004277","0","3139397","0 SPACEBEE-106","1 48893U 21059Q   21274.76019440  .00004277  00000-0  25018-3 0  9995","2 48893  97.5270  42.1410 0008132 279.5096  80.5215 15.12365723 14807","2021-059Q","48893","6907.125","95.215","534.606","523.373","0"
"GENERATED VIA SPACETRACK.ORG API","18 SPCS","48893","SPACEBEE-106","PAYLOAD","U","21059Q","2021-10-02 05:21:36","418752","15.1236714","0.0008109","97.5271","42.5976","277.6545","82.3765","0","999","1487","0.00019265","0.00003278","0","3140732","0 SPACEBEE-106","1 48893U 21059Q   21275.22333818  .00003278  00000-0  19265-3 0  9992","2 48893  97.5271  42.5976 0008109 277.6545  82.3765 15.12367140 14873","2021-059Q","48893","6907.120","95.215","534.586","523.384","0"
"GENERATED VIA SPACETRACK.ORG API","18 SPCS","48893","SPACEBEE-106","PAYLOAD","U","21059Q","2021-10-02 16:28:31","929024","15.12371643","0.0008086","97.5273","43.0543","275.8086","84.2222","0","999","1494","0.00020964","0.00003574","0","3141323","0 SPACEBEE-106","1 48893U 21059Q   21275.68648066  .00003574  00000-0  20964-3 0  9993","2 48893  97.5273  43.0543 0008086 275.8086  84.2222 15.12371643 14945","2021-059Q","48893","6907.107","95.215","534.557","523.386","0"
"GENERATED VIA SPACETRACK.ORG API","18 SPCS","48893","SPACEBEE-106","PAYLOAD","U","21059Q","2021-10-03 03:35:27","318336","15.12375422","0.0008082","97.5274","43.5108","273.8924","86.1382","0","999","1501","0.0002052","0.00003497","0","3141526","0 SPACEBEE-106","1 48893U 21059Q   21276.14962174  .00003497  00000-0  20520-3 0  9996","2 48893  97.5274  43.5108 0008082 273.8924  86.1382 15.12375422 15019","2021-059Q","48893","6907.095","95.214","534.542","523.378","0"
"GENERATED VIA SPACETRACK.ORG API","18 SPCS","48893","SPACEBEE-106","PAYLOAD","U","21059Q","2021-10-03 13:07:06","201984","15.12377279","0.000808","97.5275","43.9023","272.1986","87.8319","0","999","1507","0.00017903","0.00003043","0","3142499","0 SPACEBEE-106","1 48893U 21059Q   21276.54659956  .00003043  00000-0  17903-3 0  9999","2 48893  97.5275  43.9023 0008080 272.1986  87.8319 15.12377279 15074","2021-059Q","48893","6907.089","95.214","534.535","523.373","0"
"GENERATED VIA SPACETRACK.ORG API","18 SPCS","48893","SPACEBEE-106","PAYLOAD","U","21059Q","2021-10-03 21:03:28","538496","15.12379523","0.0008095","97.5276","44.2285","270.8383","89.192","0","999","1512","0.00016922","0.00002873","0","3143202","0 SPACEBEE-106","1 48893U 21059Q   21276.87741364  .00002873  00000-0  16922-3 0  9990","2 48893  97.5276  44.2285 0008095 270.8383  89.1920 15.12379523 15124","2021-059Q","48893","6907.083","95.214","534.539","523.356","0"
"GENERATED VIA SPACETRACK.ORG API","18 SPCS","48893","SPACEBEE-106","PAYLOAD","U","21059Q","2021-10-04 09:45:40","238208","15.12382735","0.0008139","97.5277","44.7505","268.7606","91.2693","0","999","1520","0.00017723","0.00003012","0","3143922","0 SPACEBEE-106","1 48893U 21059Q   21277.40671572  .00003012  00000-0  17723-3 0  9999","2 48893  97.5277  44.7505 0008139 268.7606  91.2693 15.12382735 15207","2021-059Q","48893","6907.073","95.214","534.559","523.316","0"
"GENERATED VIA SPACETRACK.ORG API","18 SPCS","48893","SPACEBEE-106","PAYLOAD","U","21059Q","2021-10-04 12:56:13","144128","15.12383284","0.0008103","97.5278","44.8809","268.0996","91.9306","0","999","1522","0.00015871","0.0000269","0","3144407","0 SPACEBEE-106","1 48893U 21059Q   21277.53904102  .00002690  00000-0  15871-3 0  9994","2 48893  97.5278  44.8809 0008103 268.0996  91.9306 15.12383284 15222","2021-059Q","48893","6907.071","95.214","534.533","523.339","0"
"GENERATED VIA SPACETRACK.ORG API","18 SPCS","48893","SPACEBEE-106","PAYLOAD","U","21059Q","2021-10-04 20:52:35","407200","15.1238523","0.0008138","97.5279","45.2072","266.8573","93.1727","0","999","1527","0.00016819","0.00002855","0","3144803","0 SPACEBEE-106","1 48893U 21059Q   21277.86985425  .00002855  00000-0  16819-3 0  9993","2 48893  97.5279  45.2072 0008138 266.8573  93.1727 15.12385230 15274","2021-059Q","48893","6907.065","95.214","534.551","523.309","0"
"GENERATED VIA SPACETRACK.ORG API","18 SPCS","48893","SPACEBEE-106","PAYLOAD","U","21059Q","2021-10-05 09:34:46","956576","15.12388069","0.0008147","97.5281","45.7292","264.7229","95.3072","0","999","1535","0.00016217","0.00002751","0","3145988","0 SPACEBEE-106","1 48893U 21059Q   21278.39915459  .00002751  00000-0  16217-3 0  9999","2 48893  97.5281  45.7292 0008147 264.7229  95.3072 15.12388069 15350","2021-059Q","48893","6907.057","95.214","534.549","523.294","0"
"GENERATED VIA SPACETRACK.ORG API","18 SPCS","48893","SPACEBEE-106","PAYLOAD","U","21059Q","2021-10-05 23:52:14","875104","15.12390812","0.0008166","97.5283","46.3164","262.3574","97.673","0","999","1544","0.00015463","0.0000262","0","3146584","0 SPACEBEE-106","1 48893U 21059Q   21278.99461661  .00002620  00000-0  15463-3 0  9993","2 48893  97.5283  46.3164 0008166 262.3574  97.6730 15.12390812 15440","2021-059Q","48893","6907.048","95.213","534.554","523.273","0"
"GENERATED VIA SPACETRACK.ORG API","18 SPCS","48893","SPACEBEE-106","PAYLOAD","U","21059Q","2021-10-06 09:23:53","431296","15.12392616","0.000818","97.5284","46.7079","260.762","99.2686","0","999","1550","0.00015156","0.00002567","0","3147912","0 SPACEBEE-106","1 48893U 21059Q   21279.39159064  .00002567  00000-0  15156-3 0  9998","2 48893  97.5284  46.7079 0008180 260.7620  99.2686 15.12392616 15509","2021-059Q","48893","6907.043","95.213","534.558","523.258","0"
"GENERATED VIA SPACETRACK.ORG API","18 SPCS","48893","SPACEBEE-106","PAYLOAD","U","21059Q","2021-10-06 20:30:48","317760","15.12396202","0.0008192","97.5286","47.1647","258.82","101.211","0","999","1557","0.00017238","0.00002929","0","3148521","0 SPACEBEE-106","1 48893U 21059Q   21279.85472590  .00002929  00000-0  17238-3 0  9996","2 48893  97.5286  47.1647 0008192 258.8200 101.2110 15.12396202 15570","2021-059Q","48893","6907.032","95.213","534.555","523.239","0"
"GENERATED VIA SPACETRACK.ORG API","18 SPCS","48893","SPACEBEE-106","PAYLOAD","U","21059Q","2021-10-07 02:51:53","949024","15.12397661","0.0008203","97.5287","47.4257","257.7827","102.2485","0","999","1561","0.00017422","0.00002961","0","3148706","0 SPACEBEE-106","1 48893U 21059Q   21280.11937441  .00002961  00000-0  17422-3 0  9999","2 48893  97.5287  47.4257 0008203 257.7827 102.2485 15.12397661 15618","2021-059Q","48893","6907.027","95.213","534.558","523.227","0"
"GENERATED VIA SPACETRACK.ORG API","18 SPCS","48893","SPACEBEE-106","PAYLOAD","U","21059Q","2021-10-07 09:12:59","567328","15.12399325","0.0008216","97.5287","47.6868","256.7217","103.3098","0","999","1565","0.00018132","0.00003084","0","3149232","0 SPACEBEE-106","1 48893U 21059Q   21280.38402277  .00003084  00000-0  18132-3 0  9998","2 48893  97.5287  47.6868 0008216 256.7217 103.3098 15.12399325 15659","2021-059Q","48893","6907.022","95.213","534.562","523.212","0"
"GENERATED VIA SPACETRACK.ORG API","18 SPCS","48893","SPACEBEE-106","PAYLOAD","U","21059Q","2021-10-07 21:55:10","666560","15.12403428","0.0008233","97.5289","48.2088","254.5762","105.4559","0","999","1573","0.00019822","0.00003378","0","3150302","0 SPACEBEE-106","1 48893U 21059Q   21280.91331790  .00003378  00000-0  19822-3 0  9991","2 48893  97.5289  48.2088 0008233 254.5762 105.4559 15.12403428 15736","2021-059Q","48893","6907.010","95.213","534.561","523.188","0"
"GENERATED VIA SPACETRACK.ORG API","18 SPCS","48893","SPACEBEE-106","PAYLOAD","U","21059Q","2021-10-08 05:51:32","574528","15.12405448","0.000825","97.5289","48.535","253.2571","106.7755","0","999","1578","0.00020146","0.00003435","0","3150525","0 SPACEBEE-106","1 48893U 21059Q   21281.24412702  .00003435  00000-0  20146-3 0  9996","2 48893  97.5289  48.5350 0008250 253.2571 106.7755 15.12405448 15785","2021-059Q","48893","6907.004","95.213","534.567","523.170","0"
"GENERATED VIA SPACETRACK.ORG API","18 SPCS","48893","SPACEBEE-106","PAYLOAD","U","21059Q","2021-10-08 13:47:54","441024","15.12407586","0.0008295","97.5291","48.8613","251.9444","108.0883","0","999","1583","0.00021654","0.00003697","0","3151292","0 SPACEBEE-106","1 48893U 21059Q   21281.57493566  .00003697  00000-0  21654-3 0  9994","2 48893  97.5291  48.8613 0008295 251.9444 108.0883 15.12407586 15834","2021-059Q","48893","6906.997","95.212","534.592","523.133","0"
